[{"OBJECT_NAME":"ONEWEB-0018","OBJECT_ID":"2020-020L","EPOCH":"2026-05-12T03:06:30.788064","MEAN_MOTION":13.11418207,"ECCENTRICITY":0.0002062,"INCLINATION":87.892,"RA_OF_ASC_NODE":28.2378,"ARG_OF_PERICENTER":70.8642,"MEAN_ANOMALY":289.2709,"EPHEMERIS_TYPE":0,"CLASSIFICATION_TYPE":"U","NORAD_CAT_ID":45434,"ELEMENT_SET_NO":999,"REV_AT_EPOCH":29790,"BSTAR":-0.0015122,"MEAN_MOTION_DOT":-5.23e-06,"MEAN_MOTION_DDOT":0.0},{"OBJECT_NAME":"ONEWEB-0083","OBJECT_ID":"2020-020M","EPOCH":"2026-05-12T04:41:55.887936","MEAN_MOTION":13.1141629,"ECCENTRICITY":0.0001785,"INCLINATION":87.8928,"RA_OF_ASC_NODE":28.2157,"ARG_OF_PERICENTER":77.2042,"MEAN_ANOMALY":282.9285,"EPHEMERIS_TYPE":0,"CLASSIFICATION_TYPE":"U","NORAD_CAT_ID":45435,"ELEMENT_SET_NO":999,"REV_AT_EPOCH":29795,"BSTAR":-0.0014617,"MEAN_MOTION_DOT":-5.05e-06,"MEAN_MOTION_DDOT":0.0},{"OBJECT_NAME":"ONEWEB-0095","OBJECT_ID":"2020-020N","EPOCH":"2026-05-12T06:19:35.404608","MEAN_MOTION":13.11413891,"ECCENTRICITY":0.0001539,"INCLINATION":87.8927,"RA_OF_ASC_NODE":28.2109,"ARG_OF_PERICENTER":106.0682,"MEAN_ANOMALY":254.0615,"EPHEMERIS_TYPE":0,"CLASSIFICATION_TYPE":"U","NORAD_CAT_ID":45436,"ELEMENT_SET_NO":999,"REV_AT_EPOCH":29796,"BSTAR":-0.00080747,"MEAN_MOTION_DOT":-2.73e-06,"MEAN_MOTION_DDOT":0.0},{"OBJECT_NAME":"ONEWEB-0092","OBJECT_ID":"2020-020P","EPOCH":"2026-05-12T05:31:37.344576","MEAN_MOTION":13.11954204,"ECCENTRICITY":0.0001843,"INCLINATION":87.8927,"RA_OF_ASC_NODE":28.2151,"ARG_OF_PERICENTER":90.4228,"MEAN_ANOMALY":269.7111,"EPHEMERIS_TYPE":0,"CLASSIFICATION_TYPE":"U","NORAD_CAT_ID":45437,"ELEMENT_SET_NO":999,"REV_AT_EPOCH":29807,"BSTAR":0.0012174,"MEAN_MOTION_DOT":4.48e-06,"MEAN_MOTION_DDOT":0.0},{"OBJECT_NAME":"ONEWEB-0085","OBJECT_ID":"2020-020Q","EPOCH":"2026-05-12T04:41:32.482176","MEAN_MOTION":13.11410325,"ECCENTRICITY":0.0001749,"INCLINATION":87.8917,"RA_OF_ASC_NODE":28.2255,"ARG_OF_PERICENTER":79.2114,"MEAN_ANOMALY":280.9211,"EPHEMERIS_TYPE":0,"CLASSIFICATION_TYPE":"U","NORAD_CAT_ID":45438,"ELEMENT_SET_NO":999,"REV_AT_EPOCH":29795,"BSTAR":-0.0012599,"MEAN_MOTION_DOT":-4.34e-06,"MEAN_MOTION_DDOT":0.0},{"OBJECT_NAME":"ONEWEB-0096","OBJECT_ID":"2020-020R","EPOCH":"2026-05-12T04:44:09.951360","MEAN_MOTION":13.11413712,"ECCENTRICITY":0.0001847,"INCLINATION":87.893,"RA_OF_ASC_NODE":28.2175,"ARG_OF_PERICENTER":80.5,"MEAN_ANOMALY":279.6337,"EPHEMERIS_TYPE":0,"CLASSIFICATION_TYPE":"U","NORAD_CAT_ID":45439,"ELEMENT_SET_NO":999,"REV_AT_EPOCH":29794,"BSTAR":-0.0015261,"MEAN_MOTION_DOT":-5.28e-06,"MEAN_MOTION_DDOT":0.0},{"OBJECT_NAME":"ONEWEB-0037","OBJECT_ID":"2020-020S","EPOCH":"2026-05-12T05:51:38.839392","MEAN_MOTION":13.11908962,"ECCENTRICITY":0.0001791,"INCLINATION":87.8938,"RA_OF_ASC_NODE":28.1849,"ARG_OF_PERICENTER":82.8415,"MEAN_ANOMALY":277.2917,"EPHEMERIS_TYPE":0,"CLASSIFICATION_TYPE":"U","NORAD_CAT_ID":45440,"ELEMENT_SET_NO":999,"REV_AT_EPOCH":29798,"BSTAR":0.0012626000000000002,"MEAN_MOTION_DOT":4.63e-06,"MEAN_MOTION_DDOT":0.0},{"OBJECT_NAME":"ONEWEB-0042","OBJECT_ID":"2020-020T","EPOCH":"2026-05-12T06:19:11.527968","MEAN_MOTION":13.11414326,"ECCENTRICITY":0.0001905,"INCLINATION":87.8926,"RA_OF_ASC_NODE":28.2015,"ARG_OF_PERICENTER":80.8201,"MEAN_ANOMALY":279.3142,"EPHEMERIS_TYPE":0,"CLASSIFICATION_TYPE":"U","NORAD_CAT_ID":45441,"ELEMENT_SET_NO":999,"REV_AT_EPOCH":29795,"BSTAR":-0.00089171,"MEAN_MOTION_DOT":-3.03e-06,"MEAN_MOTION_DDOT":0.0},{"OBJECT_NAME":"ONEWEB-0098","OBJECT_ID":"2020-020U","EPOCH":"2026-05-12T06:13:17.711328","MEAN_MOTION":13.11415464,"ECCENTRICITY":0.0001749,"INCLINATION":87.8923,"RA_OF_ASC_NODE":28.2125,"ARG_OF_PERICENTER":77.3546,"MEAN_ANOMALY":282.7777,"EPHEMERIS_TYPE":0,"CLASSIFICATION_TYPE":"U","NORAD_CAT_ID":45442,"ELEMENT_SET_NO":999,"REV_AT_EPOCH":29793,"BSTAR":-0.00025001,"MEAN_MOTION_DOT":-7.6e-07,"MEAN_MOTION_DDOT":0.0},{"OBJECT_NAME":"ONEWEB-0055","OBJECT_ID":"2020-020V","EPOCH":"2026-05-12T05:42:32.208192","MEAN_MOTION":13.11421738,"ECCENTRICITY":0.0001674,"INCLINATION":87.8925,"RA_OF_ASC_NODE":28.2148,"ARG_OF_PERICENTER":77.4631,"MEAN_ANOMALY":282.6684,"EPHEMERIS_TYPE":0,"CLASSIFICATION_TYPE":"U","NORAD_CAT_ID":45443,"ELEMENT_SET_NO":999,"REV_AT_EPOCH":29790,"BSTAR":0.00047759,"MEAN_MOTION_DOT":1.82e-06,"MEAN_MOTION_DDOT":0.0},{"OBJECT_NAME":"ONEWEB-0093","OBJECT_ID":"2020-020W","EPOCH":"2026-05-12T05:13:41.678400","MEAN_MOTION":13.1141881,"ECCENTRICITY":0.0002209,"INCLINATION":87.8931,"RA_OF_ASC_NODE":28.2114,"ARG_OF_PERICENTER":82.9835,"MEAN_ANOMALY":277.1544,"EPHEMERIS_TYPE":0,"CLASSIFICATION_TYPE":"U","NORAD_CAT_ID":45444,"ELEMENT_SET_NO":999,"REV_AT_EPOCH":29796,"BSTAR":-0.0001851,"MEAN_MOTION_DOT":-5.3e-07,"MEAN_MOTION_DDOT":0.0},{"OBJECT_NAME":"ONEWEB-0029","OBJECT_ID":"2020-020X","EPOCH":"2026-05-12T05:43:33.483936","MEAN_MOTION":13.10886698,"ECCENTRICITY":0.0001995,"INCLINATION":87.8916,"RA_OF_ASC_NODE":28.2173,"ARG_OF_PERICENTER":80.4999,"MEAN_ANOMALY":279.6354,"EPHEMERIS_TYPE":0,"CLASSIFICATION_TYPE":"U","NORAD_CAT_ID":45445,"ELEMENT_SET_NO":999,"REV_AT_EPOCH":29794,"BSTAR":0.0018706999999999999,"MEAN_MOTION_DOT":6.71e-06,"MEAN_MOTION_DDOT":0.0},{"OBJECT_NAME":"ONEWEB-0068","OBJECT_ID":"2020-020Y","EPOCH":"2026-05-12T05:13:16.665600","MEAN_MOTION":13.11420614,"ECCENTRICITY":0.0001996,"INCLINATION":87.893,"RA_OF_ASC_NODE":28.2148,"ARG_OF_PERICENTER":78.4092,"MEAN_ANOMALY":281.726,"EPHEMERIS_TYPE":0,"CLASSIFICATION_TYPE":"U","NORAD_CAT_ID":45446,"ELEMENT_SET_NO":999,"REV_AT_EPOCH":29788,"BSTAR":9.973300000000002e-05,"MEAN_MOTION_DOT":4.8e-07,"MEAN_MOTION_DDOT":0.0},{"OBJECT_NAME":"ONEWEB-0046","OBJECT_ID":"2020-020Z","EPOCH":"2026-05-12T03:11:23.346240","MEAN_MOTION":13.11417907,"ECCENTRICITY":0.0002011,"INCLINATION":87.8931,"RA_OF_ASC_NODE":28.2389,"ARG_OF_PERICENTER":85.5355,"MEAN_ANOMALY":274.6003,"EPHEMERIS_TYPE":0,"CLASSIFICATION_TYPE":"U","NORAD_CAT_ID":45447,"ELEMENT_SET_NO":999,"REV_AT_EPOCH":29788,"BSTAR":-0.0013388,"MEAN_MOTION_DOT":-4.62e-06,"MEAN_MOTION_DDOT":0.0},{"OBJECT_NAME":"ONEWEB-0063","OBJECT_ID":"2020-020AA","EPOCH":"2026-05-12T05:42:57.578688","MEAN_MOTION":13.11390471,"ECCENTRICITY":0.0001677,"INCLINATION":87.8929,"RA_OF_ASC_NODE":28.2155,"ARG_OF_PERICENTER":87.1966,"MEAN_ANOMALY":272.9354,"EPHEMERIS_TYPE":0,"CLASSIFICATION_TYPE":"U","NORAD_CAT_ID":45448,"ELEMENT_SET_NO":999,"REV_AT_EPOCH":29798,"BSTAR":0.0015942999999999999,"MEAN_MOTION_DOT":5.78e-06,"MEAN_MOTION_DDOT":0.0},{"OBJECT_NAME":"ONEWEB-0019","OBJECT_ID":"2020-020AB","EPOCH":"2026-05-12T04:48:50.771232","MEAN_MOTION":13.11415975,"ECCENTRICITY":0.0001717,"INCLINATION":87.8923,"RA_OF_ASC_NODE":28.2116,"ARG_OF_PERICENTER":76.3242,"MEAN_ANOMALY":283.8077,"EPHEMERIS_TYPE":0,"CLASSIFICATION_TYPE":"U","NORAD_CAT_ID":45449,"ELEMENT_SET_NO":999,"REV_AT_EPOCH":29782,"BSTAR":-0.0012057,"MEAN_MOTION_DOT":-4.15e-06,"MEAN_MOTION_DDOT":0.0}]