ONEWEB-0018             
1 45434U 20020L   26132.12952301 -.00000523  00000+0 -15122-2 0  9995
2 45434  87.8920  28.2378 0002062  70.8642 289.2709 13.11418207297905
ONEWEB-0083             
1 45435U 20020M   26132.19578574 -.00000505  00000+0 -14617-2 0  9997
2 45435  87.8928  28.2157 0001785  77.2042 282.9285 13.11416290297959
ONEWEB-0095             
1 45436U 20020N   26132.26360422 -.00000273  00000+0 -80747-3 0  9997
2 45436  87.8927  28.2109 0001539 106.0682 254.0615 13.11413891297966
ONEWEB-0092             
1 45437U 20020P   26132.23029334  .00000448  00000+0  12174-2 0  9999
2 45437  87.8927  28.2151 0001843  90.4228 269.7111 13.11954204298079
ONEWEB-0085             
1 45438U 20020Q   26132.19551484 -.00000434  00000+0 -12599-2 0  9999
2 45438  87.8917  28.2255 0001749  79.2114 280.9211 13.11410325297951
ONEWEB-0096             
1 45439U 20020R   26132.19733740 -.00000528  00000+0 -15261-2 0  9990
2 45439  87.8930  28.2175 0001847  80.5000 279.6337 13.11413712297942
ONEWEB-0037             
1 45440U 20020S   26132.24419953  .00000463  00000+0  12626-2 0  9993
2 45440  87.8938  28.1849 0001791  82.8415 277.2917 13.11908962297980
ONEWEB-0042             
1 45441U 20020T   26132.26332787 -.00000303  00000+0 -89171-3 0  9990
2 45441  87.8926  28.2015 0001905  80.8201 279.3142 13.11414326297958
ONEWEB-0098             
1 45442U 20020U   26132.25923277 -.00000076  00000+0 -25001-3 0  9999
2 45442  87.8923  28.2125 0001749  77.3546 282.7777 13.11415464297931
ONEWEB-0055             
1 45443U 20020V   26132.23787278  .00000182  00000+0  47759-3 0  9997
2 45443  87.8925  28.2148 0001674  77.4631 282.6684 13.11421738297906
ONEWEB-0093             
1 45444U 20020W   26132.21784350 -.00000053  00000+0 -18510-3 0  9996
2 45444  87.8931  28.2114 0002209  82.9835 277.1544 13.11418810297966
ONEWEB-0029             
1 45445U 20020X   26132.23858199  .00000671  00000+0  18707-2 0  9993
2 45445  87.8916  28.2173 0001995  80.4999 279.6354 13.10886698297946
ONEWEB-0068             
1 45446U 20020Y   26132.21755400  .00000048  00000+0  99733-4 0  9991
2 45446  87.8930  28.2148 0001996  78.4092 281.7260 13.11420614297883
ONEWEB-0046             
1 45447U 20020Z   26132.13290910 -.00000462  00000+0 -13388-2 0  9995
2 45447  87.8931  28.2389 0002011  85.5355 274.6003 13.11417907297889
ONEWEB-0063             
1 45448U 20020AA  26132.23816642  .00000578  00000+0  15943-2 0  9998
2 45448  87.8929  28.2155 0001677  87.1966 272.9354 13.11390471297988
ONEWEB-0019             
1 45449U 20020AB  26132.20058763 -.00000415  00000+0 -12057-2 0  9993
2 45449  87.8923  28.2116 0001717  76.3242 283.8077 13.11415975297825
